{
  "type": "FeatureCollection",
  "features": [
    {
      "type": "Feature",
      "properties": {
        "norad_id": 36451,
        "name": "COSMOS 2251 DEB",
        "group": "cosmos-2251-debris",
        "lat": 62.61473945565228,
        "lon": -0.13043494968383554,
        "alt_km": 802.1311665818739,
        "timestamp": "2025-12-17T19:34:08.435036+00:00",
        "meta_object_name": "COSMOS 2251 DEB",
        "meta_object_id": "1993-036BBA",
        "meta_epoch": "2025-12-08T10:10:07.447584",
        "meta_mean_motion": 14.18724413,
        "meta_eccentricity": 0.01840749,
        "meta_inclination": 73.9539,
        "meta_ra_of_asc_node": 342.9701,
        "meta_arg_of_pericenter": 168.3937,
        "meta_mean_anomaly": 192.1542,
        "meta_ephemeris_type": 0,
        "meta_classification_type": "U",
        "meta_norad_cat_id": 36451,
        "meta_element_set_no": 999,
        "meta_rev_at_epoch": 84164,
        "meta_bstar": 0.0010726423,
        "meta_mean_motion_dot": 2.61e-05,
        "meta_mean_motion_ddot": 0,
        "tle_line1": "1 36451U 93036BBA 25342.42369731  .00002610  00000+0  10726-2 0  9997",
        "tle_line2": "2 36451  73.9539 342.9701 0184074 168.3937 192.1542 14.18724413841646"
      },
      "geometry": {
        "type": "Point",
        "coordinates": [
          -0.13043494968383554,
          62.61473945565228
        ]
      }
    },
    {
      "type": "Feature",
      "properties": {
        "norad_id": 36453,
        "name": "COSMOS 2251 DEB",
        "group": "cosmos-2251-debris",
        "lat": -40.11355278090354,
        "lon": -23.18826730202451,
        "alt_km": 773.1458805994471,
        "timestamp": "2025-12-17T19:34:08.435047+00:00",
        "meta_object_name": "COSMOS 2251 DEB",
        "meta_object_id": "1993-036BBC",
        "meta_epoch": "2025-12-17T04:28:45.600096",
        "meta_mean_motion": 14.52638328,
        "meta_eccentricity": 0.00704745,
        "meta_inclination": 73.923,
        "meta_ra_of_asc_node": 143.9437,
        "meta_arg_of_pericenter": 46.0707,
        "meta_mean_anomaly": 129.2609,
        "meta_ephemeris_type": 0,
        "meta_classification_type": "U",
        "meta_norad_cat_id": 36453,
        "meta_element_set_no": 999,
        "meta_rev_at_epoch": 84532,
        "meta_bstar": 0.00065431102,
        "meta_mean_motion_dot": 2.739e-05,
        "meta_mean_motion_ddot": 0,
        "tle_line1": "1 36453U 93036BBC 25351.18663889  .00002739  00000+0  65431-3 0  9999",
        "tle_line2": "2 36453  73.9230 143.9437 0070474  46.0707 129.2609 14.52638328845327"
      },
      "geometry": {
        "type": "Point",
        "coordinates": [
          -23.18826730202451,
          -40.11355278090354
        ]
      }
    },
    {
      "type": "Feature",
      "properties": {
        "norad_id": 36459,
        "name": "COSMOS 2251 DEB",
        "group": "cosmos-2251-debris",
        "lat": 19.89885505237331,
        "lon": -3.4284620135715644,
        "alt_km": 767.2108676012076,
        "timestamp": "2025-12-17T19:34:08.435056+00:00",
        "meta_object_name": "COSMOS 2251 DEB",
        "meta_object_id": "1993-036BBJ",
        "meta_epoch": "2025-12-15T06:52:40.994112",
        "meta_mean_motion": 14.2642949,
        "meta_eccentricity": 0.01133967,
        "meta_inclination": 74.0484,
        "meta_ra_of_asc_node": 355.1955,
        "meta_arg_of_pericenter": 90.2624,
        "meta_mean_anomaly": 271.1518,
        "meta_ephemeris_type": 0,
        "meta_classification_type": "U",
        "meta_norad_cat_id": 36459,
        "meta_element_set_no": 999,
        "meta_rev_at_epoch": 7918,
        "meta_bstar": 0.0010918207,
        "meta_mean_motion_dot": 2.788e-05,
        "meta_mean_motion_ddot": 0,
        "tle_line1": "1 36459U 93036BBJ 25349.28658558  .00002788  00000+0  10918-2 0  9993",
        "tle_line2": "2 36459  74.0484 355.1955 0113396  90.2624 271.1518 14.26429490 79186"
      },
      "geometry": {
        "type": "Point",
        "coordinates": [
          -3.4284620135715644,
          19.89885505237331
        ]
      }
    },
    {
      "type": "Feature",
      "properties": {
        "norad_id": 36470,
        "name": "COSMOS 2251 DEB",
        "group": "cosmos-2251-debris",
        "lat": 67.55070231332931,
        "lon": 19.294210375028143,
        "alt_km": 523.400355077828,
        "timestamp": "2025-12-17T19:34:08.435066+00:00",
        "meta_object_name": "COSMOS 2251 DEB",
        "meta_object_id": "1993-036BBV",
        "meta_epoch": "2025-12-15T00:13:00.014016",
        "meta_mean_motion": 15.07582269,
        "meta_eccentricity": 0.00222568,
        "meta_inclination": 73.8449,
        "meta_ra_of_asc_node": 249.6845,
        "meta_arg_of_pericenter": 78.1368,
        "meta_mean_anomaly": 282.2316,
        "meta_ephemeris_type": 0,
        "meta_classification_type": "U",
        "meta_norad_cat_id": 36470,
        "meta_element_set_no": 999,
        "meta_rev_at_epoch": 66128,
        "meta_bstar": 0.0018721064,
        "meta_mean_motion_dot": 0.0002872,
        "meta_mean_motion_ddot": 0,
        "tle_line1": "1 36470U 93036BBV 25349.00902794  .00028720  00000+0  18721-2 0  9994",
        "tle_line2": "2 36470  73.8449 249.6845 0022256  78.1368 282.2316 15.07582269661287"
      },
      "geometry": {
        "type": "Point",
        "coordinates": [
          19.294210375028143,
          67.55070231332931
        ]
      }
    },
    {
      "type": "Feature",
      "properties": {
        "norad_id": 36528,
        "name": "COSMOS 2251 DEB",
        "group": "cosmos-2251-debris",
        "lat": -31.798810986932047,
        "lon": -33.792715511443255,
        "alt_km": 741.7928327768277,
        "timestamp": "2025-12-17T19:34:08.435076+00:00",
        "meta_object_name": "COSMOS 2251 DEB",
        "meta_object_id": "1993-036BCN",
        "meta_epoch": "2025-12-14T16:44:10.040352",
        "meta_mean_motion": 14.30658136,
        "meta_eccentricity": 0.00847741,
        "meta_inclination": 74.0159,
        "meta_ra_of_asc_node": 141.651,
        "meta_arg_of_pericenter": 190.7529,
        "meta_mean_anomaly": 169.1813,
        "meta_ephemeris_type": 0,
        "meta_classification_type": "U",
        "meta_norad_cat_id": 36528,
        "meta_element_set_no": 999,
        "meta_rev_at_epoch": 64455,
        "meta_bstar": 0.0012089622,
        "meta_mean_motion_dot": 3.261e-05,
        "meta_mean_motion_ddot": 0,
        "tle_line1": "1 36528U 93036BCN 25348.69733843  .00003261  00000+0  12090-2 0  9995",
        "tle_line2": "2 36528  74.0159 141.6510 0084774 190.7529 169.1813 14.30658136644553"
      },
      "geometry": {
        "type": "Point",
        "coordinates": [
          -33.792715511443255,
          -31.798810986932047
        ]
      }
    },
    {
      "type": "Feature",
      "properties": {
        "norad_id": 36533,
        "name": "COSMOS 2251 DEB",
        "group": "cosmos-2251-debris",
        "lat": 0.8496737619849651,
        "lon": 105.52859901692892,
        "alt_km": 739.08708561606,
        "timestamp": "2025-12-17T19:34:08.435085+00:00",
        "meta_object_name": "COSMOS 2251 DEB",
        "meta_object_id": "1993-036BCT",
        "meta_epoch": "2025-12-16T02:09:50.256000",
        "meta_mean_motion": 14.4982965,
        "meta_eccentricity": 0.00492471,
        "meta_inclination": 74.0118,
        "meta_ra_of_asc_node": 108.5273,
        "meta_arg_of_pericenter": 257.1253,
        "meta_mean_anomaly": 102.4403,
        "meta_ephemeris_type": 0,
        "meta_classification_type": "U",
        "meta_norad_cat_id": 36533,
        "meta_element_set_no": 999,
        "meta_rev_at_epoch": 84533,
        "meta_bstar": 0.00039238166,
        "meta_mean_motion_dot": 1.509e-05,
        "meta_mean_motion_ddot": 0,
        "tle_line1": "1 36533U 93036BCT 25350.09016500  .00001509  00000+0  39238-3 0  9999",
        "tle_line2": "2 36533  74.0118 108.5273 0049247 257.1253 102.4403 14.49829650845335"
      },
      "geometry": {
        "type": "Point",
        "coordinates": [
          105.52859901692892,
          0.8496737619849651
        ]
      }
    },
    {
      "type": "Feature",
      "properties": {
        "norad_id": 36539,
        "name": "COSMOS 2251 DEB",
        "group": "cosmos-2251-debris",
        "lat": 14.353001440480822,
        "lon": 49.70201422451908,
        "alt_km": 714.8844979069454,
        "timestamp": "2025-12-17T19:34:08.435095+00:00",
        "meta_object_name": "COSMOS 2251 DEB",
        "meta_object_id": "1993-036BCZ",
        "meta_epoch": "2025-12-17T06:20:17.673216",
        "meta_mean_motion": 14.59330718,
        "meta_eccentricity": 0.0026917,
        "meta_inclination": 74.024,
        "meta_ra_of_asc_node": 46.5493,
        "meta_arg_of_pericenter": 191.0322,
        "meta_mean_anomaly": 169.0257,
        "meta_ephemeris_type": 0,
        "meta_classification_type": "U",
        "meta_norad_cat_id": 36539,
        "meta_element_set_no": 999,
        "meta_rev_at_epoch": 84013,
        "meta_bstar": 0.00048071955,
        "meta_mean_motion_dot": 2.255e-05,
        "meta_mean_motion_ddot": 0,
        "tle_line1": "1 36539U 93036BCZ 25351.26409344  .00002255  00000+0  48072-3 0  9992",
        "tle_line2": "2 36539  74.0240  46.5493 0026917 191.0322 169.0257 14.59330718840136"
      },
      "geometry": {
        "type": "Point",
        "coordinates": [
          49.70201422451908,
          14.353001440480822
        ]
      }
    }
  ]
}